{
"type": "FeatureCollection",
"name": "aoi2",
"crs": { "type": "name", "properties": { "name": "urn:ogc:def:crs:EPSG::2193" } },
"xy_coordinate_resolution": 1e-15,
"features": [
{ "type": "Feature", "properties": { "id": 1 }, "geometry": { "type": "Polygon", "coordinates": [ [ [ 1641242.503237219061702, 6074412.377438044175506 ], [ 1642067.777311292942613, 6074412.377438044175506 ], [ 1642067.777311292942613, 6075258.832500711083412 ], [ 1641242.503237219061702, 6075258.832500711083412 ], [ 1641242.503237219061702, 6074412.377438044175506 ] ] ] } }
]
}
