{
"type": "FeatureCollection",
"name": "aoi_canterbury2",
"crs": { "type": "name", "properties": { "name": "urn:ogc:def:crs:EPSG::2193" } },
"xy_coordinate_resolution": 1e-15,
"features": [
{ "type": "Feature", "properties": { "id": 1 }, "geometry": { "type": "Polygon", "coordinates": [ [ [ 1565602.494035251904279, 5196920.024022583849728 ], [ 1567889.241770809050649, 5196920.024022583849728 ], [ 1567889.241770809050649, 5198285.954275327734649 ], [ 1565602.494035251904279, 5198285.954275327734649 ], [ 1565602.494035251904279, 5196920.024022583849728 ] ] ] } }
]
}
