{
"type": "FeatureCollection",
"name": "aoi",
"crs": { "type": "name", "properties": { "name": "urn:ogc:def:crs:EPSG::2193" } },
"xy_coordinate_resolution": 1e-15,
"features": [
{ "type": "Feature", "properties": { "id": 1 }, "geometry": { "type": "Polygon", "coordinates": [ [ [ 1641769.894025932997465, 6075481.540119867771864 ], [ 1642737.126721272943541, 6075481.540119867771864 ], [ 1642737.126721272943541, 6076172.541294354945421 ], [ 1641769.894025932997465, 6076172.541294354945421 ], [ 1641769.894025932997465, 6075481.540119867771864 ] ] ] } }
]
}
